[
    {
        "Altitude(m)": 702723.9366299771,
        "Argument of Periapsis(deg)": 0.0034170363559881197,
        "Eccentricity": 0.0,
        "Inclination(deg)": 45.0,
        "Latitude(deg)": 9.076389334732456,
        "Longitude(deg)": -64.35339540557706,
        "Mean Anomaly(deg)": -192.90363500575575,
        "RAAN(deg)": 224.99677441756253,
        "Satellite Name": "Constellation 1 1000",
        "Satellite Number": 1000,
        "Semi-Major Axis(m)": 7083131.272910544,
        "Time(s)": 57
    },
    {
        "Altitude(m)": 702725.2030141696,
        "Argument of Periapsis(deg)": 0.003476984362233526,
        "Eccentricity": 0.0,
        "Inclination(deg)": 45.0,
        "Latitude(deg)": 9.033719122790831,
        "Longitude(deg)": -64.3135539301372,
        "Mean Anomaly(deg)": -192.84293386550584,
        "RAAN(deg)": 224.99671782839698,
        "Satellite Name": "Constellation 1 1000",
        "Satellite Number": 1000,
        "Semi-Major Axis(m)": 7083131.272910544,
        "Time(s)": 58
    },
    {
        "Altitude(m)": 702726.4893411144,
        "Argument of Periapsis(deg)": 0.003536932368478932,
        "Eccentricity": 0.0,
        "Inclination(deg)": 45.0,
        "Latitude(deg)": 8.991043597377665,
        "Longitude(deg)": -64.2737230010251,
        "Mean Anomaly(deg)": -192.78223272525594,
        "RAAN(deg)": 224.99666123923137,
        "Satellite Name": "Constellation 1 1000",
        "Satellite Number": 1000,
        "Semi-Major Axis(m)": 7083131.272910544,
        "Time(s)": 59
    },
    {
        "Altitude(m)": 702727.7956235476,
        "Argument of Periapsis(deg)": 0.003596880374724337,
        "Eccentricity": 0.0,
        "Inclination(deg)": 45.0,
        "Latitude(deg)": 8.948362785517352,
        "Longitude(deg)": -64.23390223136506,
        "Mean Anomaly(deg)": -192.721531585006,
        "RAAN(deg)": 224.99660465006582,
        "Satellite Name": "Constellation 1 1000",
        "Satellite Number": 1000,
        "Semi-Major Axis(m)": 7083131.272910544,
        "Time(s)": 60
    },
    {
        "Altitude(m)": 702729.121874109,
        "Argument of Periapsis(deg)": 0.0036568283809697427,
        "Eccentricity": 0.0,
        "Inclination(deg)": 45.0,
        "Latitude(deg)": 8.90567671421427,
        "Longitude(deg)": -64.1940917385941,
        "Mean Anomaly(deg)": -192.66083044475616,
        "RAAN(deg)": 224.99654806090027,
        "Satellite Name": "Constellation 1 1000",
        "Satellite Number": 1000,
        "Semi-Major Axis(m)": 7083131.272910544,
        "Time(s)": 61
    },
    {
        "Altitude(m)": 702730.4681053658,
        "Argument of Periapsis(deg)": 0.003716776387215149,
        "Eccentricity": 0.0,
        "Inclination(deg)": 45.0,
        "Latitude(deg)": 8.862985410452865,
        "Longitude(deg)": -64.15429147207348,
        "Mean Anomaly(deg)": -192.6001293045062,
        "RAAN(deg)": 224.99649147173469,
        "Satellite Name": "Constellation 1 1000",
        "Satellite Number": 1000,
        "Semi-Major Axis(m)": 7083131.272910544,
        "Time(s)": 62
    },
    {
        "Altitude(m)": 702731.8343297952,
        "Argument of Periapsis(deg)": 0.003776724393460554,
        "Eccentricity": 0.0,
        "Inclination(deg)": 45.0,
        "Latitude(deg)": 8.820288901198206,
        "Longitude(deg)": -64.1145013811863,
        "Mean Anomaly(deg)": -192.53942816425635,
        "RAAN(deg)": 224.99643488256913,
        "Satellite Name": "Constellation 1 1000",
        "Satellite Number": 1000,
        "Semi-Major Axis(m)": 7083131.272910544,
        "Time(s)": 63
    },
    {
        "Altitude(m)": 702733.2205597811,
        "Argument of Periapsis(deg)": 0.003836672399705959,
        "Eccentricity": 0.0,
        "Inclination(deg)": 45.0,
        "Latitude(deg)": 8.777587213395492,
        "Longitude(deg)": -64.07472141533655,
        "Mean Anomaly(deg)": -192.47872702400645,
        "RAAN(deg)": 224.99637829340352,
        "Satellite Name": "Constellation 1 1000",
        "Satellite Number": 1000,
        "Semi-Major Axis(m)": 7083131.272910544,
        "Time(s)": 64
    },
    {
        "Altitude(m)": 702734.6268076263,
        "Argument of Periapsis(deg)": 0.003896620405951365,
        "Eccentricity": 0.0,
        "Inclination(deg)": 45.0,
        "Latitude(deg)": 8.734880373970624,
        "Longitude(deg)": -64.03495152394973,
        "Mean Anomaly(deg)": -192.41802588375657,
        "RAAN(deg)": 224.99632170423797,
        "Satellite Name": "Constellation 1 1000",
        "Satellite Number": 1000,
        "Semi-Major Axis(m)": 7083131.272910544,
        "Time(s)": 65
    },
    {
        "Altitude(m)": 702736.0530855516,
        "Argument of Periapsis(deg)": 0.003956568412196771,
        "Eccentricity": 0.0,
        "Inclination(deg)": 45.0,
        "Latitude(deg)": 8.692168409830078,
        "Longitude(deg)": -63.99519165647254,
        "Mean Anomaly(deg)": -192.35732474350667,
        "RAAN(deg)": 224.9962651150724,
        "Satellite Name": "Constellation 1 1000",
        "Satellite Number": 1000,
        "Semi-Major Axis(m)": 7083131.272910544,
        "Time(s)": 66
    },
    {
        "Altitude(m)": 702737.4994056822,
        "Argument of Periapsis(deg)": 0.004016516418442176,
        "Eccentricity": 0.0,
        "Inclination(deg)": 45.0,
        "Latitude(deg)": 8.649451347860937,
        "Longitude(deg)": -63.955441930469675,
        "Mean Anomaly(deg)": -192.29662360325673,
        "RAAN(deg)": 224.99620852590684,
        "Satellite Name": "Constellation 1 1000",
        "Satellite Number": 1000,
        "Semi-Major Axis(m)": 7083131.272910544,
        "Time(s)": 67
    },
    {
        "Altitude(m)": 702738.9657800656,
        "Argument of Periapsis(deg)": 0.004076464424687581,
        "Eccentricity": 0.0,
        "Inclination(deg)": 45.0,
        "Latitude(deg)": 8.60672921493149,
        "Longitude(deg)": -63.9157019592359,
        "Mean Anomaly(deg)": -192.23592246300683,
        "RAAN(deg)": 224.99615193674123,
        "Satellite Name": "Constellation 1 1000",
        "Satellite Number": 1000,
        "Semi-Major Axis(m)": 7083131.272910544,
        "Time(s)": 68
    },
    {
        "Altitude(m)": 702740.4522206583,
        "Argument of Periapsis(deg)": 0.004136412430932987,
        "Eccentricity": 0.0,
        "Inclination(deg)": 45.0,
        "Latitude(deg)": 8.564002037890452,
        "Longitude(deg)": -63.87597186037773,
        "Mean Anomaly(deg)": -192.17522132275695,
        "RAAN(deg)": 224.99609534757568,
        "Satellite Name": "Constellation 1 1000",
        "Satellite Number": 1000,
        "Semi-Major Axis(m)": 7083131.272910544,
        "Time(s)": 69
    },
    {
        "Altitude(m)": 702741.9587393231,
        "Argument of Periapsis(deg)": 0.004196360437178394,
        "Eccentricity": 0.0,
        "Inclination(deg)": 45.0,
        "Latitude(deg)": 8.521269843567836,
        "Longitude(deg)": -63.83625158342567,
        "Mean Anomaly(deg)": -192.11452018250705,
        "RAAN(deg)": 224.99603875841012,
        "Satellite Name": "Constellation 1 1000",
        "Satellite Number": 1000,
        "Semi-Major Axis(m)": 7083131.272910544,
        "Time(s)": 70
    },
    {
        "Altitude(m)": 702743.4853478478,
        "Argument of Periapsis(deg)": 0.004256308443423799,
        "Eccentricity": 0.0,
        "Inclination(deg)": 45.0,
        "Latitude(deg)": 8.478532658774684,
        "Longitude(deg)": -63.79654107793087,
        "Mean Anomaly(deg)": -192.05381904225717,
        "RAAN(deg)": 224.99598216924454,
        "Satellite Name": "Constellation 1 1000",
        "Satellite Number": 1000,
        "Semi-Major Axis(m)": 7083131.272910544,
        "Time(s)": 71
    },
    {
        "Altitude(m)": 702745.0320579282,
        "Argument of Periapsis(deg)": 0.004316256449669204,
        "Eccentricity": 0.0,
        "Inclination(deg)": 45.0,
        "Latitude(deg)": 8.435790510303189,
        "Longitude(deg)": -63.75684029346504,
        "Mean Anomaly(deg)": -191.99311790200724,
        "RAAN(deg)": 224.995925580079,
        "Satellite Name": "Constellation 1 1000",
        "Satellite Number": 1000,
        "Semi-Major Axis(m)": 7083131.272910544,
        "Time(s)": 72
    },
    {
        "Altitude(m)": 702746.5988811728,
        "Argument of Periapsis(deg)": 0.00437620445591461,
        "Eccentricity": 0.0,
        "Inclination(deg)": 45.0,
        "Latitude(deg)": 8.393043424927045,
        "Longitude(deg)": -63.7171491796207,
        "Mean Anomaly(deg)": -191.93241676175737,
        "RAAN(deg)": 224.99586899091344,
        "Satellite Name": "Constellation 1 1000",
        "Satellite Number": 1000,
        "Semi-Major Axis(m)": 7083131.272910544,
        "Time(s)": 73
    },
    {
        "Altitude(m)": 702748.1858290995,
        "Argument of Periapsis(deg)": 0.004436152462160016,
        "Eccentricity": 0.0,
        "Inclination(deg)": 45.0,
        "Latitude(deg)": 8.350291429401086,
        "Longitude(deg)": -63.677467854107555,
        "Mean Anomaly(deg)": -191.87171562150743,
        "RAAN(deg)": 224.99581240174786,
        "Satellite Name": "Constellation 1 1000",
        "Satellite Number": 1000,
        "Semi-Major Axis(m)": 7083131.272910544,
        "Time(s)": 74
    },
    {
        "Altitude(m)": 702749.7929131495,
        "Argument of Periapsis(deg)": 0.0044961004684054215,
        "Eccentricity": 0.0,
        "Inclination(deg)": 45.0,
        "Latitude(deg)": 8.307534550461986,
        "Longitude(deg)": -63.63779593036482,
        "Mean Anomaly(deg)": -191.81101448125756,
        "RAAN(deg)": 224.99575581258227,
        "Satellite Name": "Constellation 1 1000",
        "Satellite Number": 1000,
        "Semi-Major Axis(m)": 7083131.272910544,
        "Time(s)": 75
    }
]